NORAD_CAT_ID,OBJECT_NAME,OBJECT_TYPE,EPOCH,MEAN_MOTION,ECCENTRICITY,INCLINATION,RA_OF_ASC_NODE,ARG_OF_PERICENTER,MEAN_ANOMALY,BSTAR,MEAN_MOTION_DOT,MEAN_MOTION_DDOT,TLE_LINE0,TLE_LINE1,TLE_LINE2,SEMIMAJOR_AXIS,PERIOD,APOGEE,PERIGEE,DECAYED
53158.0,STARLINK-4054,PAYLOAD,2023-02-03 16:06:56,15.08832722,0.0001435,53.2163,196.9679,69.3379,290.7767,-2.0204e-05,-6.09e-06,0.0,0 STARLINK-4054,1 53158U 22083AC  23034.67148848 -.00000609  00000-0 -20204-4 0  9994,2 53158  53.2163 196.9679 0001435  69.3379 290.7767 15.08832722 31393,6917.903,95.438,540.76,538.775,0.0
53158.0,STARLINK-4054,PAYLOAD,2023-02-04 03:14:38,15.08836413,0.0001249,53.2168,194.8845,86.3554,273.7581,5.4819e-05,5.85e-06,0.0,0 STARLINK-4054,1 53158U 22083AC  23035.13516423  .00000585  00000-0  54819-4 0  9994,2 53158  53.2168 194.8845 0001249  86.3554 273.7581 15.08836413 31461,6917.891,95.438,540.62,538.892,0.0
53158.0,STARLINK-4054,PAYLOAD,2023-02-04 14:22:20,15.08795419,0.0001579,53.2172,192.803,88.9832,271.1341,0.00061887,9.563e-05,0.0,0 STARLINK-4054,1 53158U 22083AC  23035.59885132  .00009563  00000-0  61887-3 0  9997,2 53158  53.2172 192.8030 0001579  88.9832 271.1341 15.08795419 30907,6918.017,95.44,540.974,538.789,0.0
53158.0,STARLINK-4054,PAYLOAD,2023-02-04 19:08:28,15.08857705,0.0001061,53.2174,191.9105,101.0352,259.076,-0.00011059,-2.048e-05,0.0,0 STARLINK-4054,1 53158U 22083AC  23035.79755508 -.00002048  00000-0 -11059-3 0  9991,2 53158  53.2174 191.9105 0001061 101.0352 259.0760 15.08857705 31562,6917.826,95.436,540.425,538.957,0.0
53158.0,STARLINK-4054,PAYLOAD,2023-02-05 03:05:25,15.0883633,0.0001002,53.2168,190.4238,92.8153,267.2954,7.8482e-05,9.61e-06,0.0,0 STARLINK-4054,1 53158U 22083AC  23036.12876358  .00000961  00000-0  78482-4 0  9990,2 53158  53.2168 190.4238 0001002  92.8153 267.2954 15.08836330 31610,6917.892,95.438,540.45,539.063,0.0
53158.0,STARLINK-4054,PAYLOAD,2023-02-05 14:13:07,15.08830434,0.0001332,53.2181,188.344,98.8949,261.2194,9.6569e-06,-1.34e-06,0.0,0 STARLINK-4054,1 53158U 22083AC  23036.59245273 -.00000134  00000-0  96569-5 0  9997,2 53158  53.2181 188.3440 0001332  98.8949 261.2194 15.08830434 31687,6917.91,95.438,540.696,538.853,0.0
53158.0,STARLINK-4054,PAYLOAD,2023-02-05 18:59:17,15.08833895,0.0001306,53.218,187.4521,93.4765,266.6377,3.6245e-05,2.89e-06,0.0,0 STARLINK-4054,1 53158U 22083AC  23036.79117077  .00000289  00000-0  36245-4 0  9993,2 53158  53.2180 187.4521 0001306  93.4765 266.6377 15.08833895 31084,6917.899,95.438,540.668,538.861,0.0
53158.0,STARLINK-4054,PAYLOAD,2023-02-06 09:17:45,15.0884309,0.0001384,53.2178,184.7755,92.542,267.5731,4.8324e-05,4.81e-06,0.0,0 STARLINK-4054,1 53158U 22083AC  23037.38732671  .00000481  00000-0  48324-4 0  9997,2 53158  53.2178 184.7755 0001384  92.5420 267.5731 15.08843090 31806,6917.871,95.437,540.693,538.779,0.0
53158.0,STARLINK-4054,PAYLOAD,2023-02-06 14:03:54,15.08845075,0.000132,53.2177,183.8836,96.116,263.9983,6.9386e-05,8.17e-06,0.0,0 STARLINK-4054,1 53158U 22083AC  23037.58604443  .00000817  00000-0  69386-4 0  9998,2 53158  53.2177 183.8836 0001320  96.1160 263.9983 15.08845075 31204,6917.865,95.437,540.643,538.817,0.0
53158.0,STARLINK-4054,PAYLOAD,2023-02-06 18:50:03,15.08853518,0.0001229,53.2175,182.991,95.8974,264.2159,0.00013689,1.892e-05,0.0,0 STARLINK-4054,1 53158U 22083AC  23037.78475713  .00001892  00000-0  13689-3 0  9994,2 53158  53.2175 182.9910 0001229  95.8974 264.2159 15.08853518 31864,6917.839,95.437,540.554,538.854,0.0
53158.0,STARLINK-4054,PAYLOAD,2023-02-07 02:46:59,15.08845285,0.000118,53.218,181.5036,105.8897,254.2225,5.1203e-05,5.27e-06,0.0,0 STARLINK-4054,1 53158U 22083AC  23038.11596313  .00000527  00000-0  51203-4 0  9991,2 53158  53.2180 181.5036 0001180 105.8897 254.2225 15.08845285 31917,6917.864,95.437,540.546,538.913,0.0
53158.0,STARLINK-4054,PAYLOAD,2023-02-07 13:54:41,15.08841886,0.0001207,53.2176,179.4226,92.3998,267.7132,0.00016135,2.281e-05,0.0,0 STARLINK-4054,1 53158U 22083AC  23038.57964401  .00002281  00000-0  16135-3 0  9991,2 53158  53.2176 179.4226 0001207  92.3998 267.7132 15.08841886 31358,6917.875,95.437,540.575,538.905,0.0
53158.0,STARLINK-4054,PAYLOAD,2023-02-07 15:30:04,15.08845469,0.0001294,53.2177,179.1252,90.8423,269.2718,0.00016128,2.28e-05,0.0,0 STARLINK-4054,1 53158U 22083AC  23038.64588199  .00002280  00000-0  16128-3 0  9996,2 53158  53.2177 179.1252 0001294  90.8423 269.2718 15.08845469 31366,6917.864,95.437,540.624,538.834,0.0
53158.0,STARLINK-4054,PAYLOAD,2023-02-08 13:45:28,15.08844357,0.000109,53.2167,174.9617,91.4315,268.6802,5.2897e-05,5.54e-06,0.0,0 STARLINK-4054,1 53158U 22083AC  23039.57324427  .00000554  00000-0  52897-4 0  9997,2 53158  53.2167 174.9617 0001090  91.4315 268.6802 15.08844357 31502,6917.867,95.437,540.486,538.978,0.0
53158.0,STARLINK-4054,PAYLOAD,2023-02-08 18:31:36,15.08857667,8.25e-05,53.2177,174.0679,117.0465,243.0611,0.00015351,2.157e-05,0.0,0 STARLINK-4054,1 53158U 22083AC  23039.77195372  .00002157  00000-0  15351-3 0  9998,2 53158  53.2177 174.0679 0000825 117.0465 243.0611 15.08857667 32164,6917.826,95.436,540.262,539.121,0.0
53158.0,STARLINK-4054,PAYLOAD,2023-02-09 02:28:33,15.08835146,0.0001013,53.2175,172.5824,85.268,274.8428,-9.9151e-05,-1.865e-05,0.0,0 STARLINK-4054,1 53158U 22083AC  23040.10316541 -.00001865  00000-0 -99151-4 0  9998,2 53158  53.2175 172.5824 0001013  85.2680 274.8428 15.08835146 32214,6917.895,95.438,540.461,539.059,0.0
53158.0,STARLINK-4054,PAYLOAD,2023-02-09 08:50:06,15.08831195,0.0001237,53.2176,171.3952,90.4989,269.6145,-7.9434e-05,-1.551e-05,0.0,0 STARLINK-4054,1 53158U 22083AC  23040.36813139 -.00001551  00000-0 -79434-4 0  9995,2 53158  53.2176 171.3952 0001237  90.4989 269.6145 15.08831195 31624,6917.907,95.438,540.628,538.917,0.0
53158.0,STARLINK-4054,PAYLOAD,2023-02-09 19:57:47,15.08850734,0.0001087,53.2183,169.3058,135.8525,224.2554,8.3732e-05,1.045e-05,0.0,0 STARLINK-4054,1 53158U 22083AC  23040.83179971  .00001045  00000-0  83732-4 0  9998,2 53158  53.2183 169.3058 0001087 135.8525 224.2554 15.08850734 32328,6917.848,95.437,540.465,538.961,0.0
53158.0,STARLINK-4054,PAYLOAD,2023-02-10 15:02:25,15.08853405,0.0001504,53.218,165.7435,131.1666,228.9456,0.00020781,3.022e-05,0.0,0 STARLINK-4054,1 53158U 22083AC  23041.62668314  .00003022  00000-0  20781-3 0  9991,2 53158  53.2180 165.7435 0001504 131.1666 228.9456 15.08853405 32446,6917.839,95.437,540.745,538.664,0.0
53158.0,STARLINK-4054,PAYLOAD,2023-02-10 19:48:34,15.0886736,6.47e-05,53.2165,164.8513,122.4101,237.6953,0.0006721,0.00010433,0.0,0 STARLINK-4054,1 53158U 22083AC  23041.82539860  .00010433  00000-0  67210-3 0  9998,2 53158  53.2165 164.8513 0000647 122.4101 237.6953 15.08867360 31847,6917.797,95.436,540.109,539.214,0.0
53158.0,STARLINK-4054,PAYLOAD,2023-02-11 00:34:44,15.08840181,6.35e-05,53.2172,163.9623,189.2721,170.8259,7.2483e-05,8.66e-06,0.0,0 STARLINK-4054,1 53158U 22083AC  23042.02412807  .00000866  00000-0  72483-4 0  9990,2 53158  53.2172 163.9623 0000635 189.2721 170.8259 15.08840181 32506,6917.88,95.438,540.184,539.306,0.0
53158.0,STARLINK-4054,PAYLOAD,2023-02-11 13:17:50,15.08841952,0.000137,53.216,161.5815,102.7795,257.335,0.00012765,1.744e-05,0.0,0 STARLINK-4054,1 53158U 22083AC  23042.55405239  .00001744  00000-0  12765-3 0  9991,2 53158  53.2160 161.5815 0001370 102.7795 257.3350 15.08841952 31956,6917.874,95.437,540.687,538.792,0.0
53158.0,STARLINK-4054,PAYLOAD,2023-02-11 18:03:59,15.08858723,0.0001102,53.2166,160.6878,98.5951,261.5166,0.00067605,0.00010493,0.0,0 STARLINK-4054,1 53158U 22083AC  23042.75276791  .00010493  00000-0  67605-3 0  9996,2 53158  53.2166 160.6878 0001102  98.5951 261.5166 15.08858723 32610,6917.823,95.436,540.451,538.926,0.0
53158.0,STARLINK-4054,PAYLOAD,2023-02-11 19:39:22,15.08866949,0.0001108,53.217,160.3907,90.4141,269.6978,0.00087446,0.00013667,0.0,0 STARLINK-4054,1 53158U 22083AC  23042.81900622  .00013667  00000-0  87446-3 0  9991,2 53158  53.2170 160.3907 0001108  90.4141 269.6978 15.08866949 31992,6917.798,95.436,540.43,538.897,0.0
53158.0,STARLINK-4054,PAYLOAD,2023-02-12 14:44:00,15.08846197,6.47e-05,53.2163,156.8228,119.4346,240.6711,0.00063399,9.818e-05,0.0,0 STARLINK-4054,1 53158U 22083AC  23043.61389348  .00009818  00000-0  63399-3 0  9990,2 53158  53.2163 156.8228 0000647 119.4346 240.6711 15.08846197 32118,6917.861,95.437,540.174,539.279,0.0
53158.0,STARLINK-4054,PAYLOAD,2023-02-12 19:30:09,15.08864082,0.0001692,53.2158,155.931,97.4232,262.6952,0.0018183,0.00028788,0.0,0 STARLINK-4054,1 53158U 22083AC  23043.81261278  .00028788  00000-0  18183-2 0  9990,2 53158  53.2158 155.9310 0001692  97.4232 262.6952 15.08864082 32770,6917.807,95.436,540.842,538.501,0.0
53158.0,STARLINK-4054,PAYLOAD,2023-02-13 16:10:10,15.08860034,0.0002273,53.2157,152.0662,80.4912,279.6337,0.0019753,0.00031307,0.0,0 STARLINK-4054,1 53158U 22083AC  23044.67373708  .00031307  00000-0  19753-2 0  9992,2 53158  53.2157 152.0662 0002273  80.4912 279.6337 15.08860034 32903,6917.819,95.436,541.257,538.112,0.0
53158.0,STARLINK-4054,PAYLOAD,2023-02-14 00:07:06,15.08827985,8.58e-05,53.2153,150.5799,114.2143,245.8939,0.0011561,0.00018153,0.0,0 STARLINK-4054,1 53158U 22083AC  23045.00493381  .00018153  00000-0  11561-2 0  9993,2 53158  53.2153 150.5799 0000858 114.2143 245.8939 15.08827985 32958,6917.917,95.438,540.376,539.189,0.0
53158.0,STARLINK-4054,PAYLOAD,2023-02-14 12:50:11,15.08860794,9.73e-05,53.2153,148.2001,110.7946,249.315,0.0023932,0.00038027,0.0,0 STARLINK-4054,1 53158U 22083AC  23045.53485466  .00038027  00000-0  23932-2 0  9993,2 53158  53.2153 148.2001 0000973 110.7946 249.3150 15.08860794 32407,6917.817,95.436,540.355,539.009,0.0
53158.0,STARLINK-4054,PAYLOAD,2023-02-14 17:36:20,15.08878358,0.0001136,53.2153,147.3078,104.185,255.9269,0.0030546,0.00048713,0.0,0 STARLINK-4054,1 53158U 22083AC  23045.73357212  .00048713  00000-0  30546-2 0  9994,2 53158  53.2153 147.3078 0001136 104.1850 255.9269 15.08878358 33066,6917.763,95.435,540.414,538.842,0.0
